[{"OBJECT_ID":"1997-050A","OBJECT_NAME":"AMC-3 (GE-3)","NORAD_CAT_ID":"24936","OBJECT_TYPE":"PAYLOAD","PERIOD":"1436.118","INCLINATION":"0.0598","APOGEE":"35794.614","PERIGEE":"35779.417","ECCENTRICITY":"0.0001802","MEAN_MOTION":"1.0027029","TLE_LINE1":"1 24936U 97050A   16238.88624978 -.00000300 +00000-0 +00000-0 0  9991","TLE_LINE2":"2 24936 000.0598 285.1641 0001802 275.0087 026.4477 01.00270290016520","LAUNCH_DATE":"1997-09-04","LAUNCH_SITE":"AIR FORCE EASTERN TEST RANGE","OWNER":"SOCIÉTÉ EUROPÉENNE DES SATELLITES","ORBIT_TYPE":"Geosynchronous","OPERATIONAL_STATUS":"Operational","satInfo":{"lng":-82.44690481736468,"lat":-0.7480861793586866,"elevation":-9.300445759045065,"azimuth":37.446904817364675,"range":42740.15225782426,"height":35803.764605960285,"velocity":3.073955222286256},"x":-257,"y":-35,"dx":0.4040557179636192,"dy":-3.04728398502697,"maxAlt":256,"minAlt":256},{"OBJECT_ID":"1997-059A","OBJECT_NAME":"ECHOSTAR 3","NORAD_CAT_ID":"25004","OBJECT_TYPE":"PAYLOAD","PERIOD":"1436.109","INCLINATION":"1.5438","APOGEE":"35790.520","PERIGEE":"35783.183","ECCENTRICITY":"8.7e-05","MEAN_MOTION":"1.00270876","TLE_LINE1":"1 25004U 97059A   16238.47130068 -.00000309  00000-0  00000+0 0  9992","TLE_LINE2":"2 25004   1.5438  81.5206 0000870  93.0967 267.4088  1.00270876 69220","LAUNCH_DATE":"1997-10-05","LAUNCH_SITE":"AIR FORCE EASTERN TEST RANGE","OWNER":"UNITED STATES OF AMERICA","ORBIT_TYPE":"Geosynchronous","OPERATIONAL_STATUS":"Operational","satInfo":{"lng":-73.13206647202333,"lat":3.0566072755181954,"elevation":-5.5742395162877365,"azimuth":28.13206647202333,"range":42316.5950300178,"height":35798.292269961654,"velocity":3.0743120864060525},"x":-248,"y":-76,"dx":0.8920628469449963,"dy":-2.942043283455008,"maxAlt":256,"minAlt":256},{"OBJECT_ID":"1997-076A","OBJECT_NAME":"ASTRA 1G","NORAD_CAT_ID":"25071","OBJECT_TYPE":"PAYLOAD","PERIOD":"1436.084","INCLINATION":"1.7199","APOGEE":"35800.439","PERIGEE":"35772.282","ECCENTRICITY":"0.0003339","MEAN_MOTION":"1.00272627","TLE_LINE1":"1 25071U 97076A   16238.78988852 -.00000003 +00000-0 +00000-0 0  9993","TLE_LINE2":"2 25071 001.7199 079.3721 0003339 079.5780 162.6594 01.00272627068630","LAUNCH_DATE":"1997-12-02","LAUNCH_SITE":"TYURATAM MISSILE AND SPACE COMPLEX","OWNER":"SOCIÉTÉ EUROPÉENNE DES SATELLITES","ORBIT_TYPE":"Geosynchronous","OPERATIONAL_STATUS":"Operational","satInfo":{"lng":87.53283198867585,"lat":-2.332559769247218,"elevation":-10.845106637504921,"azimuth":227.46716801132413,"range":42898.67466153019,"height":35789.24620594036,"velocity":3.0745233505298697},"x":256,"y":-13,"dx":0.1323486971486172,"dy":3.071673429145175,"maxAlt":256,"minAlt":256},{"OBJECT_ID":"1998-006B","OBJECT_NAME":"INMARSAT 3-F5","NORAD_CAT_ID":"25153","OBJECT_TYPE":"PAYLOAD","PERIOD":"1436.085","INCLINATION":"1.9878","APOGEE":"35807.798","PERIGEE":"35764.950","ECCENTRICITY":"0.0005081","MEAN_MOTION":"1.00272579","TLE_LINE1":"1 25153U 98006B   16239.21227043 -.00000315  00000-0  00000+0 0  9990","TLE_LINE2":"2 25153   1.9878  74.5194 0005081  86.0638 196.7390  1.00272579 67973","LAUNCH_DATE":"1998-02-04","LAUNCH_SITE":"FRENCH GUIANA","OWNER":"INTERNATIONAL MARITIME SATELLITE ORGANIZATION (INMARSAT)","ORBIT_TYPE":"Geosynchronous","OPERATIONAL_STATUS":"Operational","satInfo":{"lng":-58.093895266694325,"lat":4.056902621793174,"elevation":-4.591961684375001,"azimuth":13.0938952666943,"range":42188.242051513385,"height":35780.21628256462,"velocity":3.0754478132501144},"x":-220,"y":-138,"dx":1.6254627043718723,"dy":-2.6107949457437267,"maxAlt":256,"minAlt":256},{"OBJECT_ID":"1998-014A","OBJECT_NAME":"NSS 806 (INTELSAT 806)","NORAD_CAT_ID":"25239","OBJECT_TYPE":"PAYLOAD","PERIOD":"1436.090","INCLINATION":"0.0832","APOGEE":"35805.494","PERIGEE":"35767.444","ECCENTRICITY":"0.0004512","MEAN_MOTION":"1.0027224","TLE_LINE1":"1 25239U 98014A   16239.20744501 -.00000307  00000-0  00000+0 0  9997","TLE_LINE2":"2 25239   0.0832 312.5700 0004512 204.0497 205.4708  1.00272240 67739","LAUNCH_DATE":"1998-02-28","LAUNCH_SITE":"AIR FORCE EASTERN TEST RANGE","OWNER":"SOCIÉTÉ EUROPÉENNE DES SATELLITES","ORBIT_TYPE":"Geosynchronous","OPERATIONAL_STATUS":"Operational","satInfo":{"lng":-48.07302656546025,"lat":-0.7674052895232619,"elevation":-9.325290450488145,"azimuth":3.0730265654602507,"range":42712.47428050971,"height":35773.63849578308,"velocity":3.0757158437881786},"x":-193,"y":-174,"dx":2.055140685640326,"dy":-2.2883235597169027,"maxAlt":256,"minAlt":256},{"OBJECT_ID":"1998-033A","OBJECT_NAME":"CHINASAT 5A (CHINASTAR1)","NORAD_CAT_ID":"25354","OBJECT_TYPE":"PAYLOAD","PERIOD":"1436.086","INCLINATION":"0.625","APOGEE":"35807.100","PERIGEE":"35765.669","ECCENTRICITY":"0.0004913","MEAN_MOTION":"1.0027254","TLE_LINE1":"1 25354U 98033A   16239.08668492 -.00000111  00000-0  00000+0 0  9999","TLE_LINE2":"2 25354   0.6250  88.8744 0004913  59.5555  20.5675  1.00272540 71323","LAUNCH_DATE":"1998-05-30","LAUNCH_SITE":"Xichang Space Center, China","OWNER":"PEOPLES REPUBLIC OF CHINA","ORBIT_TYPE":"Geosynchronous","OPERATIONAL_STATUS":"Operational","satInfo":{"lng":9.61716804041855,"lat":2.3150689078414404,"elevation":-6.312904166959505,"azimuth":305.38283195958144,"range":42352.614670563744,"height":35752.01213313955,"velocity":3.076595850832034},"x":42,"y":-255,"dx":3.03335744170885,"dy":0.5139889689345739,"maxAlt":256,"minAlt":256},{"OBJECT_ID":"1998-037A","OBJECT_NAME":"INTELSAT 805","NORAD_CAT_ID":"25371","OBJECT_TYPE":"PAYLOAD","PERIOD":"1436.103","INCLINATION":"0.0617","APOGEE":"35799.428","PERIGEE":"35774.011","ECCENTRICITY":"0.0003014","MEAN_MOTION":"1.00271346","TLE_LINE1":"1 25371U 98037A   16238.59820956 -.00000058  00000-0  00000+0 0  9992","TLE_LINE2":"2 25371   0.0617 284.9180 0003014 253.6117 180.0926  1.00271346 66630","LAUNCH_DATE":"1998-06-18","LAUNCH_SITE":"AIR FORCE EASTERN TEST RANGE","OWNER":"INTERNATIONAL TELECOMMUNICATIONS SATELLITE ORGANIZATION (INTELSAT)","ORBIT_TYPE":"Geosynchronous","OPERATIONAL_STATUS":"Operational","satInfo":{"lng":83.58083683453825,"lat":0.2307116779313936,"elevation":-8.356357224401435,"azimuth":231.41916316546175,"range":42576.85077877684,"height":35747.030096254435,"velocity":3.076270693877629},"x":254,"y":-30,"dx":0.3439310686155483,"dy":3.0569842659149096,"maxAlt":256,"minAlt":256},{"OBJECT_ID":"1998-050A","OBJECT_NAME":"ASTRA 2A","NORAD_CAT_ID":"25462","OBJECT_TYPE":"PAYLOAD","PERIOD":"1436.109","INCLINATION":"0.0274","APOGEE":"35795.701","PERIGEE":"35777.992","ECCENTRICITY":"0.00021","MEAN_MOTION":"1.00270893","TLE_LINE1":"1 25462U 98050A   16238.91140025 -.00000387 +00000-0 +00000-0 0  9992","TLE_LINE2":"2 25462 000.0274 167.3742 0002100 357.0833 251.7247 01.00270893010410","LAUNCH_DATE":"1998-08-30","LAUNCH_SITE":"TYURATAM MISSILE AND SPACE COMPLEX","OWNER":"SOCIÉTÉ EUROPÉENNE DES SATELLITES","ORBIT_TYPE":"Geosynchronous","OPERATIONAL_STATUS":"Operational","satInfo":{"lng":53.95927569145341,"lat":0.6710645842657186,"elevation":-7.915041350245234,"azimuth":261.0407243085466,"range":42581.21256621084,"height":35800.30913928029,"velocity":3.0743655773064607},"x":207,"y":-153,"dx":1.8088341351102832,"dy":2.485928956061842,"maxAlt":256,"minAlt":256},{"OBJECT_ID":"1998-065A","OBJECT_NAME":"INTELSAT 8 (PAS 8)","NORAD_CAT_ID":"25522","OBJECT_TYPE":"PAYLOAD","PERIOD":"1436.075","INCLINATION":"0.3997","APOGEE":"35797.699","PERIGEE":"35774.661","ECCENTRICITY":"0.0002732","MEAN_MOTION":"1.00273271","TLE_LINE1":"1 25522U 98065A   16238.59820956 -.00000058  00000-0  00000+0 0  9991","TLE_LINE2":"2 25522   0.3997  89.5366 0002732  65.5860 203.4091  1.00273271 65202","LAUNCH_DATE":"1998-11-04","LAUNCH_SITE":"TYURATAM MISSILE AND SPACE COMPLEX","OWNER":"UNITED STATES OF AMERICA","ORBIT_TYPE":"Geosynchronous","OPERATIONAL_STATUS":"Operational","satInfo":{"lng":90.50221863791147,"lat":-1.2975347560306336,"elevation":-9.845566348786829,"azimuth":224.4977813620885,"range":42751.55715509829,"height":35754.577254535114,"velocity":3.075755319845184},"x":256,"y":1,"dx":-0.026959784475315048,"dy":3.075637162861867,"maxAlt":256,"minAlt":256},{"OBJECT_ID":"1999-006A","OBJECT_NAME":"JCSAT 6","NORAD_CAT_ID":"25630","OBJECT_TYPE":"PAYLOAD","PERIOD":"1436.067","INCLINATION":"1.6878","APOGEE":"35792.010","PERIGEE":"35780.043","ECCENTRICITY":"0.0001419","MEAN_MOTION":"1.00273818","TLE_LINE1":"1 25630U 99006A   16238.86970137 -.00000184  00000-0  00000+0 0  9994","TLE_LINE2":"2 25630   1.6878  81.4976 0001419  94.8435 193.2278  1.00273818 64070","LAUNCH_DATE":"1999-02-16","LAUNCH_SITE":"AIR FORCE EASTERN TEST RANGE","OWNER":"JAPAN","ORBIT_TYPE":"Geosynchronous","OPERATIONAL_STATUS":"Operational","satInfo":{"lng":68.57114550717428,"lat":-1.0084192202567577,"elevation":-9.558343352672464,"azimuth":246.4288544928257,"range":42747.95398203449,"height":35782.871495478525,"velocity":3.074934160779211},"x":238,"y":-96,"dx":1.1234137374337059,"dy":2.862369938996737,"maxAlt":256,"minAlt":256},{"OBJECT_ID":"1999-013A","OBJECT_NAME":"ASIASAT 3S","NORAD_CAT_ID":"25657","OBJECT_TYPE":"PAYLOAD","PERIOD":"1436.139","INCLINATION":"1.9067","APOGEE":"35799.899","PERIGEE":"35774.963","ECCENTRICITY":"0.0002957","MEAN_MOTION":"1.00268808","TLE_LINE1":"1 25657U 99013A   16239.53967400 -.00000229  00000-0  00000+0 0  9995","TLE_LINE2":"2 25657   1.9067  79.6511 0002957  90.3650 149.7938  1.00268808 63907","LAUNCH_DATE":"1999-03-21","LAUNCH_SITE":"TYURATAM MISSILE AND SPACE COMPLEX","OWNER":"ASIASAT CORP","ORBIT_TYPE":"Geosynchronous","OPERATIONAL_STATUS":"Operational","satInfo":{"lng":-137.6644200002234,"lat":-0.7036493310981384,"elevation":-9.253069829230961,"azimuth":92.66442000022339,"range":42755.37884049998,"height":35824.077551684866,"velocity":3.072987310445026},"x":-175,"y":189,"dx":-2.271592228956558,"dy":-2.0695699445779385,"maxAlt":256,"minAlt":256}]